<?xml version="1.0" encoding="UTF-8"?>
<ndm xmlns:xsi="http://www.w3.org/2001/XMLSchema-instance" xsi:noNamespaceSchemaLocation="https://sanaregistry.org/r/ndmxml_unqualified/ndmxml-2.0.0-master-2.0.xsd">
<omm id="CCSDS_OMM_VERS" version="2.0">
<header><CREATION_DATE/><ORIGINATOR/></header><body><segment><metadata><OBJECT_NAME>ORBCOMM FM33</OBJECT_NAME><OBJECT_ID>1999-065D</OBJECT_ID><CENTER_NAME>EARTH</CENTER_NAME><REF_FRAME>TEME</REF_FRAME><TIME_SYSTEM>UTC</TIME_SYSTEM><MEAN_ELEMENT_THEORY>SGP4</MEAN_ELEMENT_THEORY></metadata><data><meanElements><EPOCH>2025-08-25T12:52:44.565024</EPOCH><MEAN_MOTION>14.40114787</MEAN_MOTION><ECCENTRICITY>.00077483</ECCENTRICITY><INCLINATION>45.0297</INCLINATION><RA_OF_ASC_NODE>29.2166</RA_OF_ASC_NODE><ARG_OF_PERICENTER>58.8971</ARG_OF_PERICENTER><MEAN_ANOMALY>301.2638</MEAN_ANOMALY></meanElements><tleParameters><EPHEMERIS_TYPE>0</EPHEMERIS_TYPE><CLASSIFICATION_TYPE>U</CLASSIFICATION_TYPE><NORAD_CAT_ID>25983</NORAD_CAT_ID><ELEMENT_SET_NO>999</ELEMENT_SET_NO><REV_AT_EPOCH>34606</REV_AT_EPOCH><BSTAR>.27590273E-3</BSTAR><MEAN_MOTION_DOT>.736E-5</MEAN_MOTION_DOT><MEAN_MOTION_DDOT>0</MEAN_MOTION_DDOT></tleParameters></data></segment></body></omm>
<omm id="CCSDS_OMM_VERS" version="2.0">
<header><CREATION_DATE/><ORIGINATOR/></header><body><segment><metadata><OBJECT_NAME>ORBCOMM FM36</OBJECT_NAME><OBJECT_ID>1999-065E</OBJECT_ID><CENTER_NAME>EARTH</CENTER_NAME><REF_FRAME>TEME</REF_FRAME><TIME_SYSTEM>UTC</TIME_SYSTEM><MEAN_ELEMENT_THEORY>SGP4</MEAN_ELEMENT_THEORY></metadata><data><meanElements><EPOCH>2025-08-25T02:32:07.105056</EPOCH><MEAN_MOTION>14.38257064</MEAN_MOTION><ECCENTRICITY>.00034395</ECCENTRICITY><INCLINATION>45.0387</INCLINATION><RA_OF_ASC_NODE>124.2566</RA_OF_ASC_NODE><ARG_OF_PERICENTER>310.4524</ARG_OF_PERICENTER><MEAN_ANOMALY>49.6025</MEAN_ANOMALY></meanElements><tleParameters><EPHEMERIS_TYPE>0</EPHEMERIS_TYPE><CLASSIFICATION_TYPE>U</CLASSIFICATION_TYPE><NORAD_CAT_ID>25984</NORAD_CAT_ID><ELEMENT_SET_NO>999</ELEMENT_SET_NO><REV_AT_EPOCH>34434</REV_AT_EPOCH><BSTAR>.35543283E-3</BSTAR><MEAN_MOTION_DOT>.948E-5</MEAN_MOTION_DOT><MEAN_MOTION_DDOT>0</MEAN_MOTION_DDOT></tleParameters></data></segment></body></omm>
<omm id="CCSDS_OMM_VERS" version="2.0">
<header><CREATION_DATE/><ORIGINATOR/></header><body><segment><metadata><OBJECT_NAME>ORBCOMM FM35</OBJECT_NAME><OBJECT_ID>1999-065F</OBJECT_ID><CENTER_NAME>EARTH</CENTER_NAME><REF_FRAME>TEME</REF_FRAME><TIME_SYSTEM>UTC</TIME_SYSTEM><MEAN_ELEMENT_THEORY>SGP4</MEAN_ELEMENT_THEORY></metadata><data><meanElements><EPOCH>2025-08-25T01:34:19.249248</EPOCH><MEAN_MOTION>14.37214520</MEAN_MOTION><ECCENTRICITY>.00048959</ECCENTRICITY><INCLINATION>45.0390</INCLINATION><RA_OF_ASC_NODE>130.0298</RA_OF_ASC_NODE><ARG_OF_PERICENTER>16.0860</ARG_OF_PERICENTER><MEAN_ANOMALY>344.0143</MEAN_ANOMALY></meanElements><tleParameters><EPHEMERIS_TYPE>0</EPHEMERIS_TYPE><CLASSIFICATION_TYPE>U</CLASSIFICATION_TYPE><NORAD_CAT_ID>25985</NORAD_CAT_ID><ELEMENT_SET_NO>999</ELEMENT_SET_NO><REV_AT_EPOCH>34469</REV_AT_EPOCH><BSTAR>.31397818E-3</BSTAR><MEAN_MOTION_DOT>.801E-5</MEAN_MOTION_DOT><MEAN_MOTION_DDOT>0</MEAN_MOTION_DDOT></tleParameters></data></segment></body></omm>
<omm id="CCSDS_OMM_VERS" version="2.0">
<header><CREATION_DATE/><ORIGINATOR/></header><body><segment><metadata><OBJECT_NAME>ORBCOMM FM34</OBJECT_NAME><OBJECT_ID>1999-065G</OBJECT_ID><CENTER_NAME>EARTH</CENTER_NAME><REF_FRAME>TEME</REF_FRAME><TIME_SYSTEM>UTC</TIME_SYSTEM><MEAN_ELEMENT_THEORY>SGP4</MEAN_ELEMENT_THEORY></metadata><data><meanElements><EPOCH>2025-08-24T23:04:05.557152</EPOCH><MEAN_MOTION>14.37222681</MEAN_MOTION><ECCENTRICITY>.00050007</ECCENTRICITY><INCLINATION>45.0387</INCLINATION><RA_OF_ASC_NODE>130.9801</RA_OF_ASC_NODE><ARG_OF_PERICENTER>336.4637</ARG_OF_PERICENTER><MEAN_ANOMALY>23.5982</MEAN_ANOMALY></meanElements><tleParameters><EPHEMERIS_TYPE>0</EPHEMERIS_TYPE><CLASSIFICATION_TYPE>U</CLASSIFICATION_TYPE><NORAD_CAT_ID>25986</NORAD_CAT_ID><ELEMENT_SET_NO>999</ELEMENT_SET_NO><REV_AT_EPOCH>34479</REV_AT_EPOCH><BSTAR>.27054086E-3</BSTAR><MEAN_MOTION_DOT>.671E-5</MEAN_MOTION_DOT><MEAN_MOTION_DDOT>0</MEAN_MOTION_DDOT></tleParameters></data></segment></body></omm>
<omm id="CCSDS_OMM_VERS" version="2.0">
<header><CREATION_DATE/><ORIGINATOR/></header><body><segment><metadata><OBJECT_NAME>ORBCOMM FM38</OBJECT_NAME><OBJECT_ID>2008-031A</OBJECT_ID><CENTER_NAME>EARTH</CENTER_NAME><REF_FRAME>TEME</REF_FRAME><TIME_SYSTEM>UTC</TIME_SYSTEM><MEAN_ELEMENT_THEORY>SGP4</MEAN_ELEMENT_THEORY></metadata><data><meanElements><EPOCH>2025-08-25T09:56:06.450720</EPOCH><MEAN_MOTION>14.81545045</MEAN_MOTION><ECCENTRICITY>.00050932</ECCENTRICITY><INCLINATION>48.4422</INCLINATION><RA_OF_ASC_NODE>345.2839</RA_OF_ASC_NODE><ARG_OF_PERICENTER>329.8957</ARG_OF_PERICENTER><MEAN_ANOMALY>30.1666</MEAN_ANOMALY></meanElements><tleParameters><EPHEMERIS_TYPE>0</EPHEMERIS_TYPE><CLASSIFICATION_TYPE>U</CLASSIFICATION_TYPE><NORAD_CAT_ID>33060</NORAD_CAT_ID><ELEMENT_SET_NO>999</ELEMENT_SET_NO><REV_AT_EPOCH>92501</REV_AT_EPOCH><BSTAR>.21585926E-3</BSTAR><MEAN_MOTION_DOT>.1497E-4</MEAN_MOTION_DOT><MEAN_MOTION_DDOT>0</MEAN_MOTION_DDOT></tleParameters></data></segment></body></omm>
<omm id="CCSDS_OMM_VERS" version="2.0">
<header><CREATION_DATE/><ORIGINATOR/></header><body><segment><metadata><OBJECT_NAME>ORBCOMM FM41</OBJECT_NAME><OBJECT_ID>2008-031B</OBJECT_ID><CENTER_NAME>EARTH</CENTER_NAME><REF_FRAME>TEME</REF_FRAME><TIME_SYSTEM>UTC</TIME_SYSTEM><MEAN_ELEMENT_THEORY>SGP4</MEAN_ELEMENT_THEORY></metadata><data><meanElements><EPOCH>2025-08-25T10:39:17.920224</EPOCH><MEAN_MOTION>14.81120504</MEAN_MOTION><ECCENTRICITY>.00044777</ECCENTRICITY><INCLINATION>48.4459</INCLINATION><RA_OF_ASC_NODE>353.1601</RA_OF_ASC_NODE><ARG_OF_PERICENTER>313.6101</ARG_OF_PERICENTER><MEAN_ANOMALY>84.5174</MEAN_ANOMALY></meanElements><tleParameters><EPHEMERIS_TYPE>0</EPHEMERIS_TYPE><CLASSIFICATION_TYPE>U</CLASSIFICATION_TYPE><NORAD_CAT_ID>33061</NORAD_CAT_ID><ELEMENT_SET_NO>999</ELEMENT_SET_NO><REV_AT_EPOCH>92450</REV_AT_EPOCH><BSTAR>.21492419E-3</BSTAR><MEAN_MOTION_DOT>.1473E-4</MEAN_MOTION_DOT><MEAN_MOTION_DDOT>0</MEAN_MOTION_DDOT></tleParameters></data></segment></body></omm>
<omm id="CCSDS_OMM_VERS" version="2.0">
<header><CREATION_DATE/><ORIGINATOR/></header><body><segment><metadata><OBJECT_NAME>ORBCOMM FM29</OBJECT_NAME><OBJECT_ID>2008-031C</OBJECT_ID><CENTER_NAME>EARTH</CENTER_NAME><REF_FRAME>TEME</REF_FRAME><TIME_SYSTEM>UTC</TIME_SYSTEM><MEAN_ELEMENT_THEORY>SGP4</MEAN_ELEMENT_THEORY></metadata><data><meanElements><EPOCH>2025-08-25T13:38:00.165408</EPOCH><MEAN_MOTION>14.81231755</MEAN_MOTION><ECCENTRICITY>.00060958</ECCENTRICITY><INCLINATION>48.4410</INCLINATION><RA_OF_ASC_NODE>0.2922</RA_OF_ASC_NODE><ARG_OF_PERICENTER>316.2913</ARG_OF_PERICENTER><MEAN_ANOMALY>134.4788</MEAN_ANOMALY></meanElements><tleParameters><EPHEMERIS_TYPE>0</EPHEMERIS_TYPE><CLASSIFICATION_TYPE>U</CLASSIFICATION_TYPE><NORAD_CAT_ID>33062</NORAD_CAT_ID><ELEMENT_SET_NO>999</ELEMENT_SET_NO><REV_AT_EPOCH>92443</REV_AT_EPOCH><BSTAR>.22655729E-3</BSTAR><MEAN_MOTION_DOT>.1569E-4</MEAN_MOTION_DOT><MEAN_MOTION_DDOT>0</MEAN_MOTION_DDOT></tleParameters></data></segment></body></omm>
<omm id="CCSDS_OMM_VERS" version="2.0">
<header><CREATION_DATE/><ORIGINATOR/></header><body><segment><metadata><OBJECT_NAME>ORBCOMM FM39</OBJECT_NAME><OBJECT_ID>2008-031D</OBJECT_ID><CENTER_NAME>EARTH</CENTER_NAME><REF_FRAME>TEME</REF_FRAME><TIME_SYSTEM>UTC</TIME_SYSTEM><MEAN_ELEMENT_THEORY>SGP4</MEAN_ELEMENT_THEORY></metadata><data><meanElements><EPOCH>2025-08-25T13:59:13.700544</EPOCH><MEAN_MOTION>14.79756726</MEAN_MOTION><ECCENTRICITY>.0007168</ECCENTRICITY><INCLINATION>48.4419</INCLINATION><RA_OF_ASC_NODE>25.2611</RA_OF_ASC_NODE><ARG_OF_PERICENTER>290.2230</ARG_OF_PERICENTER><MEAN_ANOMALY>69.7914</MEAN_ANOMALY></meanElements><tleParameters><EPHEMERIS_TYPE>0</EPHEMERIS_TYPE><CLASSIFICATION_TYPE>U</CLASSIFICATION_TYPE><NORAD_CAT_ID>33063</NORAD_CAT_ID><ELEMENT_SET_NO>999</ELEMENT_SET_NO><REV_AT_EPOCH>92407</REV_AT_EPOCH><BSTAR>.20414775E-3</BSTAR><MEAN_MOTION_DOT>.1339E-4</MEAN_MOTION_DOT><MEAN_MOTION_DDOT>0</MEAN_MOTION_DDOT></tleParameters></data></segment></body></omm>

</ndm>
