ORBCOMM FM33            
1 25983U 99065D   25237.53662691  .00000736  00000+0  27590-3 0  9994
2 25983  45.0297  29.2166 0007748  58.8971 301.2638 14.40114787346065
ORBCOMM FM36            
1 25984U 99065E   25237.10563779  .00000948  00000+0  35543-3 0  9997
2 25984  45.0387 124.2566 0003439 310.4524  49.6025 14.38257064344345
ORBCOMM FM35            
1 25985U 99065F   25237.06550057  .00000801  00000+0  31398-3 0  9990
2 25985  45.0390 130.0298 0004895  16.0860 344.0143 14.37214520344696
ORBCOMM FM34            
1 25986U 99065G   25236.96117543  .00000671  00000+0  27054-3 0  9997
2 25986  45.0387 130.9801 0005000 336.4637  23.5982 14.37222681344790
ORBCOMM FM38            
1 33060U 08031A   25237.41396355  .00001497  00000+0  21586-3 0  9994
2 33060  48.4422 345.2839 0005093 329.8957  30.1666 14.81545045925018
ORBCOMM FM41            
1 33061U 08031B   25237.44395741  .00001473  00000+0  21492-3 0  9996
2 33061  48.4459 353.1601 0004477 313.6101  84.5174 14.81120504924500
ORBCOMM FM29            
1 33062U 08031C   25237.56805747  .00001569  00000+0  22656-3 0  9991
2 33062  48.4410   0.2922 0006095 316.2913 134.4788 14.81231755924431
ORBCOMM FM39            
1 33063U 08031D   25237.58279746  .00001339  00000+0  20415-3 0  9994
2 33063  48.4419  25.2611 0007168 290.2230  69.7914 14.79756726924076
